start=new Date('2023-01-16T00:00:00.000Z').valueOf();
sats=[{"FILE":"3748322","OBJECT_ID":"2022-029W","APOAPSIS":"540.828","EPOCH":"2023-01-15T18:22:55.499232","PERIAPSIS":"538.634","INCLINATION":"53.2159","TIME_SYSTEM":"UTC","GP_ID":"223149928","SITE":"AFETR","TLE_LINE1":"1 52108U 22029W   23015.76592013  .00000534  00000-0  51623-4 0  9998","RA_OF_ASC_NODE":"196.8393","CENTER_NAME":"EARTH","MEAN_ELEMENT_THEORY":"SGP4","BSTAR":"0.00005162300000","RCS_SIZE":"LARGE","NORAD_CAT_ID":"52108","MEAN_ANOMALY":"294.8380","REV_AT_EPOCH":"4733","ARG_OF_PERICENTER":"65.2777","MEAN_MOTION_DOT":"0.00000534","DECAY_DATE":null,"LAUNCH_DATE":"2022-03-19","OBJECT_NAME":"STARLINK-3698","EPHEMERIS_TYPE":"0","CLASSIFICATION_TYPE":"U","TLE_LINE2":"2 52108  53.2159 196.8393 0001586  65.2777 294.8380 15.08844726 47332","PERIOD":"95.437","COUNTRY_CODE":"US","SEMIMAJOR_AXIS":"6917.866","REF_FRAME":"TEME","ECCENTRICITY":"0.00015860","OBJECT_TYPE":"PAYLOAD","MEAN_MOTION_DDOT":"0.0000000000000","ELEMENT_SET_NO":"999","MEAN_MOTION":"15.08844726"},{"BSTAR":"0.00013993000000","MEAN_ELEMENT_THEORY":"SGP4","CENTER_NAME":"EARTH","TLE_LINE1":"1 52110U 22029Y   23015.76224623  .00001939  00000-0  13993-3 0  9997","RA_OF_ASC_NODE":"196.8508","SITE":"AFETR","REV_AT_EPOCH":"4733","MEAN_ANOMALY":"315.7037","NORAD_CAT_ID":"52110","RCS_SIZE":"LARGE","APOAPSIS":"541.412","OBJECT_ID":"2022-029Y","EPOCH":"2023-01-15T18:17:38.074272","FILE":"3748322","GP_ID":"223148679","TIME_SYSTEM":"UTC","INCLINATION":"53.2155","PERIAPSIS":"538.070","REF_FRAME":"TEME","SEMIMAJOR_AXIS":"6917.876","COUNTRY_CODE":"US","PERIOD":"95.437","MEAN_MOTION":"15.08841479","ELEMENT_SET_NO":"999","OBJECT_TYPE":"PAYLOAD","MEAN_MOTION_DDOT":"0.0000000000000","ECCENTRICITY":"0.00024150","OBJECT_NAME":"STARLINK-3687","LAUNCH_DATE":"2022-03-19","DECAY_DATE":null,"ARG_OF_PERICENTER":"44.4149","MEAN_MOTION_DOT":"0.00001939","TLE_LINE2":"2 52110  53.2155 196.8508 0002415  44.4149 315.7037 15.08841479 47337","CLASSIFICATION_TYPE":"U","EPHEMERIS_TYPE":"0"},{"MEAN_MOTION_DDOT":"0.0000000000000","OBJECT_TYPE":"PAYLOAD","ECCENTRICITY":"0.00024610","ELEMENT_SET_NO":"999","MEAN_MOTION":"15.08841790","COUNTRY_CODE":"US","SEMIMAJOR_AXIS":"6917.875","PERIOD":"95.437","REF_FRAME":"TEME","EPHEMERIS_TYPE":"0","CLASSIFICATION_TYPE":"U","TLE_LINE2":"2 52111  53.2152 196.6369 0002461  49.4149 310.7056 15.08841790 47347","ARG_OF_PERICENTER":"49.4149","MEAN_MOTION_DOT":"0.00000462","DECAY_DATE":null,"OBJECT_NAME":"STARLINK-3708","LAUNCH_DATE":"2022-03-19","RCS_SIZE":"LARGE","MEAN_ANOMALY":"310.7056","NORAD_CAT_ID":"52111","REV_AT_EPOCH":"4734","TLE_LINE1":"1 52111U 22029Z   23015.81376488  .00000462  00000-0  47145-4 0  9998","RA_OF_ASC_NODE":"196.6369","SITE":"AFETR","MEAN_ELEMENT_THEORY":"SGP4","CENTER_NAME":"EARTH","BSTAR":"0.00004714500000","INCLINATION":"53.2152","PERIAPSIS":"538.037","TIME_SYSTEM":"UTC","GP_ID":"223148929","FILE":"3748322","OBJECT_ID":"2022-029Z","APOAPSIS":"541.442","EPOCH":"2023-01-15T19:31:49.285632"},{"CLASSIFICATION_TYPE":"U","EPHEMERIS_TYPE":"0","TLE_LINE2":"2 52112  53.2172 196.5901 0002355  49.0757 311.0439 15.08843083 47340","DECAY_DATE":null,"MEAN_MOTION_DOT":"0.00000894","ARG_OF_PERICENTER":"49.0757","OBJECT_NAME":"STARLINK-3734","LAUNCH_DATE":"2022-03-19","OBJECT_TYPE":"PAYLOAD","MEAN_MOTION_DDOT":"0.0000000000000","ECCENTRICITY":"0.00023550","MEAN_MOTION":"15.08843083","ELEMENT_SET_NO":"999","COUNTRY_CODE":"US","SEMIMAJOR_AXIS":"6917.871","PERIOD":"95.437","REF_FRAME":"TEME","INCLINATION":"53.2172","PERIAPSIS":"538.107","GP_ID":"223150179","TIME_SYSTEM":"UTC","FILE":"3748322","EPOCH":"2023-01-15T19:42:25.187040","APOAPSIS":"541.365","OBJECT_ID":"2022-029AA","RCS_SIZE":"LARGE","REV_AT_EPOCH":"4734","MEAN_ANOMALY":"311.0439","NORAD_CAT_ID":"52112","MEAN_ELEMENT_THEORY":"SGP4","CENTER_NAME":"EARTH","TLE_LINE1":"1 52112U 22029AA  23015.82112485  .00000894  00000-0  74271-4 0  9994","RA_OF_ASC_NODE":"196.5901","SITE":"AFETR","BSTAR":"0.00007427100000"},{"COUNTRY_CODE":"US","SEMIMAJOR_AXIS":"6917.886","PERIOD":"95.438","REF_FRAME":"TEME","MEAN_MOTION_DDOT":"0.0000000000000","OBJECT_TYPE":"PAYLOAD","ECCENTRICITY":"0.00019850","MEAN_MOTION":"15.08838113","ELEMENT_SET_NO":"999","DECAY_DATE":null,"ARG_OF_PERICENTER":"50.9973","MEAN_MOTION_DOT":"0.00001644","OBJECT_NAME":"STARLINK-3736","LAUNCH_DATE":"2022-03-19","CLASSIFICATION_TYPE":"U","EPHEMERIS_TYPE":"0","TLE_LINE2":"2 52113  53.2164 196.6605 0001985  50.9973 309.1195 15.08838113 47348","MEAN_ELEMENT_THEORY":"SGP4","CENTER_NAME":"EARTH","TLE_LINE1":"1 52113U 22029AB  23015.80640489  .00001644  00000-0  12140-3 0  9993","SITE":"AFETR","RA_OF_ASC_NODE":"196.6605","BSTAR":"0.00012140000000","RCS_SIZE":"LARGE","REV_AT_EPOCH":"4734","MEAN_ANOMALY":"309.1195","NORAD_CAT_ID":"52113","FILE":"3748322","APOAPSIS":"541.124","OBJECT_ID":"2022-029AB","EPOCH":"2023-01-15T19:21:13.382496","INCLINATION":"53.2164","PERIAPSIS":"538.378","GP_ID":"223150428","TIME_SYSTEM":"UTC"},{"TLE_LINE2":"2 52114  53.2148 196.6149 0002695  37.6504 322.4676 15.08865170 47340","CLASSIFICATION_TYPE":"U","EPHEMERIS_TYPE":"0","OBJECT_NAME":"STARLINK-3737","LAUNCH_DATE":"2022-03-19","DECAY_DATE":null,"MEAN_MOTION_DOT":"-0.00008327","ARG_OF_PERICENTER":"37.6504","MEAN_MOTION":"15.08865170","ELEMENT_SET_NO":"999","MEAN_MOTION_DDOT":"0.0000000000000","OBJECT_TYPE":"PAYLOAD","ECCENTRICITY":"0.00026950","REF_FRAME":"TEME","COUNTRY_CODE":"US","PERIOD":"95.436","SEMIMAJOR_AXIS":"6917.803","GP_ID":"223149179","TIME_SYSTEM":"UTC","INCLINATION":"53.2148","PERIAPSIS":"537.804","APOAPSIS":"541.533","OBJECT_ID":"2022-029AC","EPOCH":"2023-01-15T19:37:06.306240","FILE":"3748322","REV_AT_EPOCH":"4734","MEAN_ANOMALY":"322.4676","NORAD_CAT_ID":"52114","RCS_SIZE":"LARGE","BSTAR":"-0.00050526000000","MEAN_ELEMENT_THEORY":"SGP4","CENTER_NAME":"EARTH","TLE_LINE1":"1 52114U 22029AC  23015.81743410 -.00008327  00000-0 -50526-3 0  9990","RA_OF_ASC_NODE":"196.6149","SITE":"AFETR"},{"INCLINATION":"53.2138","PERIAPSIS":"537.911","GP_ID":"223149428","TIME_SYSTEM":"UTC","FILE":"3748322","OBJECT_ID":"2022-029AD","APOAPSIS":"541.620","EPOCH":"2023-01-15T19:10:37.467264","RCS_SIZE":"LARGE","REV_AT_EPOCH":"4734","MEAN_ANOMALY":"317.4211","NORAD_CAT_ID":"52115","MEAN_ELEMENT_THEORY":"SGP4","CENTER_NAME":"EARTH","TLE_LINE1":"1 52115U 22029AD  23015.79904476  .00004013  00000-0  27016-3 0  9993","SITE":"AFETR","RA_OF_ASC_NODE":"196.7052","BSTAR":"0.00027016000000","CLASSIFICATION_TYPE":"U","EPHEMERIS_TYPE":"0","TLE_LINE2":"2 52115  53.2138 196.7052 0002681  42.6989 317.4211 15.08833382 47341","DECAY_DATE":null,"ARG_OF_PERICENTER":"42.6989","MEAN_MOTION_DOT":"0.00004013","OBJECT_NAME":"STARLINK-3685","LAUNCH_DATE":"2022-03-19","MEAN_MOTION_DDOT":"0.0000000000000","OBJECT_TYPE":"PAYLOAD","ECCENTRICITY":"0.00026810","MEAN_MOTION":"15.08833382","ELEMENT_SET_NO":"999","COUNTRY_CODE":"US","PERIOD":"95.438","SEMIMAJOR_AXIS":"6917.901","REF_FRAME":"TEME"},{"OBJECT_NAME":"STARLINK-3735","LAUNCH_DATE":"2022-03-19","DECAY_DATE":null,"ARG_OF_PERICENTER":"48.1082","MEAN_MOTION_DOT":"0.00001763","TLE_LINE2":"2 52116  53.2151 196.6512 0002139  48.1082 312.0093 15.08840803 47345","CLASSIFICATION_TYPE":"U","EPHEMERIS_TYPE":"0","REF_FRAME":"TEME","SEMIMAJOR_AXIS":"6917.878","COUNTRY_CODE":"US","PERIOD":"95.438","MEAN_MOTION":"15.08840803","ELEMENT_SET_NO":"999","MEAN_MOTION_DDOT":"0.0000000000000","OBJECT_TYPE":"PAYLOAD","ECCENTRICITY":"0.00021390","APOAPSIS":"541.223","EPOCH":"2023-01-15T19:26:31.422624","OBJECT_ID":"2022-029AE","FILE":"3748322","GP_ID":"223149680","TIME_SYSTEM":"UTC","INCLINATION":"53.2151","PERIAPSIS":"538.263","BSTAR":"0.00012886000000","MEAN_ELEMENT_THEORY":"SGP4","CENTER_NAME":"EARTH","RA_OF_ASC_NODE":"196.6512","TLE_LINE1":"1 52116U 22029AE  23015.81008591  .00001763  00000-0  12886-3 0  9998","SITE":"AFETR","REV_AT_EPOCH":"4734","MEAN_ANOMALY":"312.0093","NORAD_CAT_ID":"52116","RCS_SIZE":"LARGE"},{"OBJECT_TYPE":"PAYLOAD","MEAN_MOTION_DDOT":"0.0000000000000","ECCENTRICITY":"0.00027320","MEAN_MOTION":"15.08837557","ELEMENT_SET_NO":"999","PERIOD":"95.438","COUNTRY_CODE":"US","SEMIMAJOR_AXIS":"6917.888","REF_FRAME":"TEME","CLASSIFICATION_TYPE":"U","EPHEMERIS_TYPE":"0","TLE_LINE2":"2 52117  53.2156 196.7390 0002732  40.2066 319.9128 15.08837557 47358","DECAY_DATE":null,"MEAN_MOTION_DOT":"0.00000690","ARG_OF_PERICENTER":"40.2066","OBJECT_NAME":"STARLINK-3738","LAUNCH_DATE":"2022-03-19","RCS_SIZE":"LARGE","REV_AT_EPOCH":"4735","MEAN_ANOMALY":"319.9128","NORAD_CAT_ID":"52117","MEAN_ELEMENT_THEORY":"SGP4","CENTER_NAME":"EARTH","TLE_LINE1":"1 52117U 22029AF  23015.79168553  .00000690  00000-0  61503-4 0  9990","RA_OF_ASC_NODE":"196.7390","SITE":"AFETR","BSTAR":"0.00006150300000","INCLINATION":"53.2156","PERIAPSIS":"537.863","GP_ID":"223149929","TIME_SYSTEM":"UTC","FILE":"3748322","APOAPSIS":"541.643","OBJECT_ID":"2022-029AF","EPOCH":"2023-01-15T19:00:01.629792"},{"MEAN_MOTION_DOT":"0.00001369","ARG_OF_PERICENTER":"51.7451","DECAY_DATE":null,"LAUNCH_DATE":"2022-03-19","OBJECT_NAME":"STARLINK-3743","EPHEMERIS_TYPE":"0","CLASSIFICATION_TYPE":"U","TLE_LINE2":"2 52118  53.2161 196.6777 0001964  51.7451 308.3718 15.08837588 47344","COUNTRY_CODE":"US","SEMIMAJOR_AXIS":"6917.888","PERIOD":"95.438","REF_FRAME":"TEME","ECCENTRICITY":"0.00019640","MEAN_MOTION_DDOT":"0.0000000000000","OBJECT_TYPE":"PAYLOAD","ELEMENT_SET_NO":"999","MEAN_MOTION":"15.08837588","FILE":"3748322","APOAPSIS":"541.111","OBJECT_ID":"2022-029AG","EPOCH":"2023-01-15T19:15:55.591200","PERIAPSIS":"538.394","INCLINATION":"53.2161","TIME_SYSTEM":"UTC","GP_ID":"223148680","RA_OF_ASC_NODE":"196.6777","TLE_LINE1":"1 52118U 22029AG  23015.80272675  .00001369  00000-0  10412-3 0  9990","SITE":"AFETR","CENTER_NAME":"EARTH","MEAN_ELEMENT_THEORY":"SGP4","BSTAR":"0.00010412000000","RCS_SIZE":"LARGE","NORAD_CAT_ID":"52118","MEAN_ANOMALY":"308.3718","REV_AT_EPOCH":"4734"}];
